{"type": "FeatureCollection", "features": [ {"type": "Feature", "properties": {"norad_id": 66529, "name": "STARLINK-35933", "group": "last-30-days", "lat": 20.849111688749677, "lon": 130.98829476587068, "alt_km": 341.7480730930156, "timestamp": "2025-12-03T19:33:05.756807+00:00", "meta": {"OBJECT_NAME": "STARLINK-35933", "OBJECT_ID": "2025-265P", "EPOCH": "2025-12-03T12:00:02.998944", "MEAN_MOTION": 15.75000817, "ECCENTRICITY": 0.0001608, "INCLINATION": 42.9998, "RA_OF_ASC_NODE": 108.7737, "ARG_OF_PERICENTER": 274.7666, "MEAN_ANOMALY": 130.7014, "EPHEMERIS_TYPE": 0, "CLASSIFICATION_TYPE": "U", "NORAD_CAT_ID": 66529, "ELEMENT_SET_NO": 999, "REV_AT_EPOCH": 351, "BSTAR": 9.1368e-05, "MEAN_MOTION_DOT": 0.00013557, "MEAN_MOTION_DDOT": 0}, "tle": {"line1": "1 66529U 25265P   25337.50003471  .00013557  00000+0  91368-4 0  9999", "line2": "2 66529  42.9998 108.7737 0001608 274.7666 130.7014 15.75000817  3516"}}, "geometry": {"type": "Point", "coordinates": [130.98829476587068, 20.849111688749677]}}, {"type": "Feature", "properties": {"norad_id": 66530, "name": "STARLINK-35961", "group": "last-30-days", "lat": 22.024735787584685, "lon": 132.5895719878571, "alt_km": 341.53786311261956, "timestamp": "2025-12-03T19:33:05.756818+00:00", "meta": {"OBJECT_NAME": "STARLINK-35961", "OBJECT_ID": "2025-265Q", "EPOCH": "2025-12-03T12:00:02.998944", "MEAN_MOTION": 15.75031559, "ECCENTRICITY": 0.0001366, "INCLINATION": 42.9998, "RA_OF_ASC_NODE": 108.7692, "ARG_OF_PERICENTER": 270.453, "MEAN_ANOMALY": 136.8921, "EPHEMERIS_TYPE": 0, "CLASSIFICATION_TYPE": "U", "NORAD_CAT_ID": 66530, "ELEMENT_SET_NO": 999, "REV_AT_EPOCH": 351, "BSTAR": -6.8097e-05, "MEAN_MOTION_DOT": -0.0001092, "MEAN_MOTION_DDOT": 0}, "tle": {"line1": "1 66530U 25265Q   25337.50003471 -.00010920  00000+0 -68097-4 0  9997", "line2": "2 66530  42.9998 108.7692 0001366 270.4530 136.8921 15.75031559  3513"}}, "geometry": {"type": "Point", "coordinates": [132.5895719878571, 22.024735787584685]}}, {"type": "Feature", "properties": {"norad_id": 66531, "name": "STARLINK-35960", "group": "last-30-days", "lat": 23.198615830091672, "lon": 134.23752860815054, "alt_km": 341.70062178909393, "timestamp": "2025-12-03T19:33:05.756828+00:00", "meta": {"OBJECT_NAME": "STARLINK-35960", "OBJECT_ID": "2025-265R", "EPOCH": "2025-12-03T12:00:02.998944", "MEAN_MOTION": 15.7506362, "ECCENTRICITY": 0.0001707, "INCLINATION": 42.9997, "RA_OF_ASC_NODE": 108.7643, "ARG_OF_PERICENTER": 258.5998, "MEAN_ANOMALY": 150.6521, "EPHEMERIS_TYPE": 0, "CLASSIFICATION_TYPE": "U", "NORAD_CAT_ID": 66531, "ELEMENT_SET_NO": 999, "REV_AT_EPOCH": 351, "BSTAR": -0.00043944, "MEAN_MOTION_DOT": -0.00067515, "MEAN_MOTION_DDOT": 0}, "tle": {"line1": "1 66531U 25265R   25337.50003471 -.00067515  00000+0 -43944-3 0  9993", "line2": "2 66531  42.9997 108.7643 0001707 258.5998 150.6521 15.75063620  3517"}}, "geometry": {"type": "Point", "coordinates": [134.23752860815054, 23.198615830091672]}}, {"type": "Feature", "properties": {"norad_id": 66532, "name": "STARLINK-35914", "group": "last-30-days", "lat": 24.353736041781055, "lon": 135.91334904364842, "alt_km": 341.49509223534915, "timestamp": "2025-12-03T19:33:05.756837+00:00", "meta": {"OBJECT_NAME": "STARLINK-35914", "OBJECT_ID": "2025-265S", "EPOCH": "2025-12-03T12:00:02.998944", "MEAN_MOTION": 15.75066529, "ECCENTRICITY": 0.0001758, "INCLINATION": 42.9995, "RA_OF_ASC_NODE": 108.7598, "ARG_OF_PERICENTER": 264.6437, "MEAN_ANOMALY": 146.5303, "EPHEMERIS_TYPE": 0, "CLASSIFICATION_TYPE": "U", "NORAD_CAT_ID": 66532, "ELEMENT_SET_NO": 999, "REV_AT_EPOCH": 351, "BSTAR": -0.00053863, "MEAN_MOTION_DOT": -0.00082513, "MEAN_MOTION_DDOT": 0}, "tle": {"line1": "1 66532U 25265S   25337.50003471 -.00082513  00000+0 -53863-3 0  9990", "line2": "2 66532  42.9995 108.7598 0001758 264.6437 146.5303 15.75066529  3510"}}, "geometry": {"type": "Point", "coordinates": [135.91334904364842, 24.353736041781055]}}, {"type": "Feature", "properties": {"norad_id": 66533, "name": "STARLINK-35707", "group": "last-30-days", "lat": 25.488286636822878, "lon": 137.61682196004372, "alt_km": 341.0563487147447, "timestamp": "2025-12-03T19:33:05.756849+00:00", "meta": {"OBJECT_NAME": "STARLINK-35707", "OBJECT_ID": "2025-265T", "EPOCH": "2025-12-03T12:00:02.998944", "MEAN_MOTION": 15.75045937, "ECCENTRICITY": 0.0001684, "INCLINATION": 42.9995, "RA_OF_ASC_NODE": 108.7551, "ARG_OF_PERICENTER": 277.482, "MEAN_ANOMALY": 135.6124, "EPHEMERIS_TYPE": 0, "CLASSIFICATION_TYPE": "U", "NORAD_CAT_ID": 66533, "ELEMENT_SET_NO": 999, "REV_AT_EPOCH": 351, "BSTAR": -0.00017731, "MEAN_MOTION_DOT": -0.00027633, "MEAN_MOTION_DDOT": 0}, "tle": {"line1": "1 66533U 25265T   25337.50003471 -.00027633  00000+0 -17731-3 0  9997", "line2": "2 66533  42.9995 108.7551 0001684 277.4820 135.6124 15.75045937  3516"}}, "geometry": {"type": "Point", "coordinates": [137.61682196004372, 25.488286636822878]}}, {"type": "Feature", "properties": {"norad_id": 66534, "name": "STARLINK-35976", "group": "last-30-days", "lat": 26.601993410612028, "lon": 139.35148588445654, "alt_km": 341.2942435750083, "timestamp": "2025-12-03T19:33:05.756859+00:00", "meta": {"OBJECT_NAME": "STARLINK-35976", "OBJECT_ID": "2025-265U", "EPOCH": "2025-12-03T12:00:02.998944", "MEAN_MOTION": 15.75073381, "ECCENTRICITY": 0.0001668, "INCLINATION": 42.9997, "RA_OF_ASC_NODE": 108.7507, "ARG_OF_PERICENTER": 252.9538, "MEAN_ANOMALY": 162.0557, "EPHEMERIS_TYPE": 0, "CLASSIFICATION_TYPE": "U", "NORAD_CAT_ID": 66534, "ELEMENT_SET_NO": 999, "REV_AT_EPOCH": 351, "BSTAR": -0.00060276, "MEAN_MOTION_DOT": -0.00092202, "MEAN_MOTION_DDOT": 0}, "tle": {"line1": "1 66534U 25265U   25337.50003471 -.00092202  00000+0 -60276-3 0  9994", "line2": "2 66534  42.9997 108.7507 0001668 252.9538 162.0557 15.75073381  3514"}}, "geometry": {"type": "Point", "coordinates": [139.35148588445654, 26.601993410612028]}}, {"type": "Feature", "properties": {"norad_id": 66535, "name": "STARLINK-35514", "group": "last-30-days", "lat": 27.68917844237785, "lon": 141.11093023404862, "alt_km": 340.79017144497357, "timestamp": "2025-12-03T19:33:05.756869+00:00", "meta": {"OBJECT_NAME": "STARLINK-35514", "OBJECT_ID": "2025-265V", "EPOCH": "2025-12-03T12:00:02.998944", "MEAN_MOTION": 15.75041657, "ECCENTRICITY": 0.0001472, "INCLINATION": 42.9998, "RA_OF_ASC_NODE": 108.7453, "ARG_OF_PERICENTER": 270.983, "MEAN_ANOMALY": 145.9454, "EPHEMERIS_TYPE": 0, "CLASSIFICATION_TYPE": "U", "NORAD_CAT_ID": 66535, "ELEMENT_SET_NO": 999, "REV_AT_EPOCH": 351, "BSTAR": -0.00018532, "MEAN_MOTION_DOT": -0.0002885, "MEAN_MOTION_DDOT": 0}, "tle": {"line1": "1 66535U 25265V   25337.50003471 -.00028850  00000+0 -18532-3 0  9991", "line2": "2 66535  42.9998 108.7453 0001472 270.9830 145.9454 15.75041657  3511"}}, "geometry": {"type": "Point", "coordinates": [141.11093023404862, 27.68917844237785]}}, {"type": "Feature", "properties": {"norad_id": 66536, "name": "STARLINK-35640", "group": "last-30-days", "lat": 28.75830803343877, "lon": 142.91501869939168, "alt_km": 340.54837717381906, "timestamp": "2025-12-03T19:33:05.756879+00:00", "meta": {"OBJECT_NAME": "STARLINK-35640", "OBJECT_ID": "2025-265W", "EPOCH": "2025-12-03T12:00:02.998944", "MEAN_MOTION": 15.75030338, "ECCENTRICITY": 0.0001513, "INCLINATION": 42.9998, "RA_OF_ASC_NODE": 108.7411, "ARG_OF_PERICENTER": 277.0391, "MEAN_ANOMALY": 141.8063, "EPHEMERIS_TYPE": 0, "CLASSIFICATION_TYPE": "U", "NORAD_CAT_ID": 66536, "ELEMENT_SET_NO": 999, "REV_AT_EPOCH": 349, "BSTAR": 2.3349e-05, "MEAN_MOTION_DOT": 3.109e-05, "MEAN_MOTION_DDOT": 0}, "tle": {"line1": "1 66536U 25265W   25337.50003471  .00003109  00000+0  23349-4 0  9993", "line2": "2 66536  42.9998 108.7411 0001513 277.0391 141.8063 15.75030338  3494"}}, "geometry": {"type": "Point", "coordinates": [142.91501869939168, 28.75830803343877]}}, {"type": "Feature", "properties": {"norad_id": 66537, "name": "STARLINK-35582", "group": "last-30-days", "lat": 29.80246069712335, "lon": 144.75414500435838, "alt_km": 340.4598075743179, "timestamp": "2025-12-03T19:33:05.756889+00:00", "meta": {"OBJECT_NAME": "STARLINK-35582", "OBJECT_ID": "2025-265X", "EPOCH": "2025-12-03T12:00:02.998944", "MEAN_MOTION": 15.75030441, "ECCENTRICITY": 0.0001476, "INCLINATION": 43, "RA_OF_ASC_NODE": 108.736, "ARG_OF_PERICENTER": 273.6862, "MEAN_ANOMALY": 147.0807, "EPHEMERIS_TYPE": 0, "CLASSIFICATION_TYPE": "U", "NORAD_CAT_ID": 66537, "ELEMENT_SET_NO": 999, "REV_AT_EPOCH": 351, "BSTAR": -6.1849e-05, "MEAN_MOTION_DOT": -9.963e-05, "MEAN_MOTION_DDOT": 0}, "tle": {"line1": "1 66537U 25265X   25337.50003471 -.00009963  00000+0 -61849-4 0  9997", "line2": "2 66537  43.0000 108.7360 0001476 273.6862 147.0807 15.75030441  3519"}}, "geometry": {"type": "Point", "coordinates": [144.75414500435838, 29.80246069712335]}}, {"type": "Feature", "properties": {"norad_id": 66538, "name": "STARLINK-35577", "group": "last-30-days", "lat": 30.82229877207386, "lon": 146.63556725551763, "alt_km": 340.394032986057, "timestamp": "2025-12-03T19:33:05.756899+00:00", "meta": {"OBJECT_NAME": "STARLINK-35577", "OBJECT_ID": "2025-265Y", "EPOCH": "2025-12-03T12:00:02.998944", "MEAN_MOTION": 15.75047233, "ECCENTRICITY": 0.0001476, "INCLINATION": 42.9999, "RA_OF_ASC_NODE": 108.7309, "ARG_OF_PERICENTER": 267.5102, "MEAN_ANOMALY": 155.1679, "EPHEMERIS_TYPE": 0, "CLASSIFICATION_TYPE": "U", "NORAD_CAT_ID": 66538, "ELEMENT_SET_NO": 999, "REV_AT_EPOCH": 351, "BSTAR": -0.0002298, "MEAN_MOTION_DOT": -0.0003564, "MEAN_MOTION_DDOT": 0}, "tle": {"line1": "1 66538U 25265Y   25337.50003471 -.00035640  00000+0 -22980-3 0  9991", "line2": "2 66538  42.9999 108.7309 0001476 267.5102 155.1679 15.75047233  3511"}}, "geometry": {"type": "Point", "coordinates": [146.63556725551763, 30.82229877207386]}}]}